SL-16 R/B               
1 22285U 92093B   25323.13991173  .00000045  00000+0  47303-4 0  9990
2 22285  71.0218 236.3338 0002326 141.7350 218.3938 14.15427907697514
COSMOS 2228             
1 22286U 92094A   25323.22322429  .00002472  00000+0  21441-3 0  9994
2 22286  82.5178 343.0359 0016831 317.8269  42.1657 14.96578171759538
SL-16 R/B               
1 22566U 93016B   25323.09866192  .00000337  00000+0  19750-3 0  9993
2 22566  71.0072  87.4534 0008734 141.2432 218.9319 14.15285459686524
COSMOS 2242             
1 22626U 93024A   25323.22595464  .00002598  00000+0  22909-3 0  9996
2 22626  82.5210  12.3167 0015312 320.9460  39.0655 14.95973030763874
SL-16 R/B               
1 22803U 93059B   25323.22826106 -.00000020  00000+0  13965-4 0  9993
2 22803  70.9902 244.0630 0016567  10.5757 349.5712 14.17208889663883
ARIANE 40 R/B           
1 22830U 93061H   25323.15403533  .00000309  00000+0  12937-3 0  9999
2 22830  98.5106  29.1102 0009716 248.8962 111.1184 14.32780069678270
COSMOS 2278             
1 23087U 94023A   25323.26733665  .00000396  00000+0  23152-3 0  9994
2 23087  71.0554  46.1165 0009685 209.9665 150.0905 14.14344524629191
SL-16 R/B               
1 23088U 94023B   25323.22285590 -.00000130  00000+0 -42372-4 0  9994
2 23088  70.9989 302.8726 0001180 140.8453 219.2756 14.14991387630466
SL-16 R/B               
1 23343U 94074B   25322.99982818  .00000610  00000+0  88743-4 0  9997
2 23343  97.7233 353.2449 0005727 211.0427 208.9165 14.79250918670882
SL-16 R/B               
1 23405U 94077B   25323.17687624 -.00000018  00000+0  15345-4 0  9998
2 23405  70.9829 224.9820 0004347 303.4427  56.6279 14.15547980600598
ARIANE 40+ R/B          
1 23561U 95021B   25323.17621968  .00000391  00000+0  13891-3 0  9996
2 23561  98.4681  31.0467 0007865 111.1009 310.6630 14.39669507603340
SL-16 R/B               
1 23705U 95058B   25323.24904475 -.00000219  00000+0 -87602-4 0  9994
2 23705  71.0227  52.1215 0014982 285.3029  74.6438 14.15475766552221
