CCSDS_OMM_VERS = 2.0
CREATION_DATE  = 
ORIGINATOR     = 

OBJECT_NAME    = SL-16 R/B
OBJECT_ID      = 1992-093B
CENTER_NAME    = EARTH
REF_FRAME      = TEME
TIME_SYSTEM    = UTC
MEAN_ELEMENT_THEORY = SGP/SGP4

EPOCH          = 2025-11-19T03:21:28.373472
MEAN_MOTION    = 14.15427907
ECCENTRICITY   = .00023263
INCLINATION    = 71.0218
RA_OF_ASC_NODE = 236.3338
ARG_OF_PERICENTER = 141.7350
MEAN_ANOMALY   = 218.3938

EPHEMERIS_TYPE = 0
CLASSIFICATION_TYPE = U
NORAD_CAT_ID   = 22285
ELEMENT_SET_NO = 999
REV_AT_EPOCH   = 69751
BSTAR          = .47302775E-4
MEAN_MOTION_DOT = .45E-6
MEAN_MOTION_DDOT = 0

CCSDS_OMM_VERS = 2.0
CREATION_DATE  = 
ORIGINATOR     = 

OBJECT_NAME    = COSMOS 2228
OBJECT_ID      = 1992-094A
CENTER_NAME    = EARTH
REF_FRAME      = TEME
TIME_SYSTEM    = UTC
MEAN_ELEMENT_THEORY = SGP/SGP4

EPOCH          = 2025-11-19T05:21:26.578656
MEAN_MOTION    = 14.96578171
ECCENTRICITY   = .00168312
INCLINATION    = 82.5178
RA_OF_ASC_NODE = 343.0359
ARG_OF_PERICENTER = 317.8269
MEAN_ANOMALY   = 42.1657

EPHEMERIS_TYPE = 0
CLASSIFICATION_TYPE = U
NORAD_CAT_ID   = 22286
ELEMENT_SET_NO = 999
REV_AT_EPOCH   = 75953
BSTAR          = .21440532E-3
MEAN_MOTION_DOT = .2472E-4
MEAN_MOTION_DDOT = 0

CCSDS_OMM_VERS = 2.0
CREATION_DATE  = 
ORIGINATOR     = 

OBJECT_NAME    = SL-16 R/B
OBJECT_ID      = 1993-016B
CENTER_NAME    = EARTH
REF_FRAME      = TEME
TIME_SYSTEM    = UTC
MEAN_ELEMENT_THEORY = SGP/SGP4

EPOCH          = 2025-11-19T02:22:04.389888
MEAN_MOTION    = 14.15285459
ECCENTRICITY   = .00087349
INCLINATION    = 71.0072
RA_OF_ASC_NODE = 87.4534
ARG_OF_PERICENTER = 141.2432
MEAN_ANOMALY   = 218.9319

EPHEMERIS_TYPE = 0
CLASSIFICATION_TYPE = U
NORAD_CAT_ID   = 22566
ELEMENT_SET_NO = 999
REV_AT_EPOCH   = 68652
BSTAR          = .19749718E-3
MEAN_MOTION_DOT = .337E-5
MEAN_MOTION_DDOT = 0

CCSDS_OMM_VERS = 2.0
CREATION_DATE  = 
ORIGINATOR     = 

OBJECT_NAME    = COSMOS 2242
OBJECT_ID      = 1993-024A
CENTER_NAME    = EARTH
REF_FRAME      = TEME
TIME_SYSTEM    = UTC
MEAN_ELEMENT_THEORY = SGP/SGP4

EPOCH          = 2025-11-19T05:25:22.480896
MEAN_MOTION    = 14.95973030
ECCENTRICITY   = .00153127
INCLINATION    = 82.5210
RA_OF_ASC_NODE = 12.3167
ARG_OF_PERICENTER = 320.9460
MEAN_ANOMALY   = 39.0655

EPHEMERIS_TYPE = 0
CLASSIFICATION_TYPE = U
NORAD_CAT_ID   = 22626
ELEMENT_SET_NO = 999
REV_AT_EPOCH   = 76387
BSTAR          = .22908518E-3
MEAN_MOTION_DOT = .2598E-4
MEAN_MOTION_DDOT = 0

CCSDS_OMM_VERS = 2.0
CREATION_DATE  = 
ORIGINATOR     = 

OBJECT_NAME    = SL-16 R/B
OBJECT_ID      = 1993-059B
CENTER_NAME    = EARTH
REF_FRAME      = TEME
TIME_SYSTEM    = UTC
MEAN_ELEMENT_THEORY = SGP/SGP4

EPOCH          = 2025-11-19T05:28:41.755584
MEAN_MOTION    = 14.17208889
ECCENTRICITY   = .00165674
INCLINATION    = 70.9902
RA_OF_ASC_NODE = 244.0630
ARG_OF_PERICENTER = 10.5757
MEAN_ANOMALY   = 349.5712

EPHEMERIS_TYPE = 0
CLASSIFICATION_TYPE = U
NORAD_CAT_ID   = 22803
ELEMENT_SET_NO = 999
REV_AT_EPOCH   = 66388
BSTAR          = .13965011E-4
MEAN_MOTION_DOT = -.2E-6
MEAN_MOTION_DDOT = 0

CCSDS_OMM_VERS = 2.0
CREATION_DATE  = 
ORIGINATOR     = 

OBJECT_NAME    = ARIANE 40 R/B
OBJECT_ID      = 1993-061H
CENTER_NAME    = EARTH
REF_FRAME      = TEME
TIME_SYSTEM    = UTC
MEAN_ELEMENT_THEORY = SGP/SGP4

EPOCH          = 2025-11-19T03:41:48.652512
MEAN_MOTION    = 14.32780069
ECCENTRICITY   = .00097163
INCLINATION    = 98.5106
RA_OF_ASC_NODE = 29.1102
ARG_OF_PERICENTER = 248.8962
MEAN_ANOMALY   = 111.1184

EPHEMERIS_TYPE = 0
CLASSIFICATION_TYPE = U
NORAD_CAT_ID   = 22830
ELEMENT_SET_NO = 999
REV_AT_EPOCH   = 67827
BSTAR          = .12936812E-3
MEAN_MOTION_DOT = .309E-5
MEAN_MOTION_DDOT = 0

CCSDS_OMM_VERS = 2.0
CREATION_DATE  = 
ORIGINATOR     = 

OBJECT_NAME    = COSMOS 2278
OBJECT_ID      = 1994-023A
CENTER_NAME    = EARTH
REF_FRAME      = TEME
TIME_SYSTEM    = UTC
MEAN_ELEMENT_THEORY = SGP/SGP4

EPOCH          = 2025-11-19T06:24:57.886560
MEAN_MOTION    = 14.14344524
ECCENTRICITY   = .00096858
INCLINATION    = 71.0554
RA_OF_ASC_NODE = 46.1165
ARG_OF_PERICENTER = 209.9665
MEAN_ANOMALY   = 150.0905

EPHEMERIS_TYPE = 0
CLASSIFICATION_TYPE = U
NORAD_CAT_ID   = 23087
ELEMENT_SET_NO = 999
REV_AT_EPOCH   = 62919
BSTAR          = .23151539E-3
MEAN_MOTION_DOT = .396E-5
MEAN_MOTION_DDOT = 0

CCSDS_OMM_VERS = 2.0
CREATION_DATE  = 
ORIGINATOR     = 

OBJECT_NAME    = SL-16 R/B
OBJECT_ID      = 1994-023B
CENTER_NAME    = EARTH
REF_FRAME      = TEME
TIME_SYSTEM    = UTC
MEAN_ELEMENT_THEORY = SGP/SGP4

EPOCH          = 2025-11-19T05:20:54.749760
MEAN_MOTION    = 14.14991387
ECCENTRICITY   = .00011809
INCLINATION    = 70.9989
RA_OF_ASC_NODE = 302.8726
ARG_OF_PERICENTER = 140.8453
MEAN_ANOMALY   = 219.2756

EPHEMERIS_TYPE = 0
CLASSIFICATION_TYPE = U
NORAD_CAT_ID   = 23088
ELEMENT_SET_NO = 999
REV_AT_EPOCH   = 63046
BSTAR          = -.42371507E-4
MEAN_MOTION_DOT = -.13E-5
MEAN_MOTION_DDOT = 0

CCSDS_OMM_VERS = 2.0
CREATION_DATE  = 
ORIGINATOR     = 

OBJECT_NAME    = SL-16 R/B
OBJECT_ID      = 1994-074B
CENTER_NAME    = EARTH
REF_FRAME      = TEME
TIME_SYSTEM    = UTC
MEAN_ELEMENT_THEORY = SGP/SGP4

EPOCH          = 2025-11-18T23:59:45.154752
MEAN_MOTION    = 14.79250918
ECCENTRICITY   = .00057278
INCLINATION    = 97.7233
RA_OF_ASC_NODE = 353.2449
ARG_OF_PERICENTER = 211.0427
MEAN_ANOMALY   = 208.9165

EPHEMERIS_TYPE = 0
CLASSIFICATION_TYPE = U
NORAD_CAT_ID   = 23343
ELEMENT_SET_NO = 999
REV_AT_EPOCH   = 67088
BSTAR          = .8874298E-4
MEAN_MOTION_DOT = .61E-5
MEAN_MOTION_DDOT = 0

CCSDS_OMM_VERS = 2.0
CREATION_DATE  = 
ORIGINATOR     = 

OBJECT_NAME    = SL-16 R/B
OBJECT_ID      = 1994-077B
CENTER_NAME    = EARTH
REF_FRAME      = TEME
TIME_SYSTEM    = UTC
MEAN_ELEMENT_THEORY = SGP/SGP4

EPOCH          = 2025-11-19T04:14:42.107136
MEAN_MOTION    = 14.15547980
ECCENTRICITY   = .00043472
INCLINATION    = 70.9829
RA_OF_ASC_NODE = 224.9820
ARG_OF_PERICENTER = 303.4427
MEAN_ANOMALY   = 56.6279

EPHEMERIS_TYPE = 0
CLASSIFICATION_TYPE = U
NORAD_CAT_ID   = 23405
ELEMENT_SET_NO = 999
REV_AT_EPOCH   = 60059
BSTAR          = .15344905E-4
MEAN_MOTION_DOT = -.18E-6
MEAN_MOTION_DDOT = 0

CCSDS_OMM_VERS = 2.0
CREATION_DATE  = 
ORIGINATOR     = 

OBJECT_NAME    = ARIANE 40+ R/B
OBJECT_ID      = 1995-021B
CENTER_NAME    = EARTH
REF_FRAME      = TEME
TIME_SYSTEM    = UTC
MEAN_ELEMENT_THEORY = SGP/SGP4

EPOCH          = 2025-11-19T04:13:45.380352
MEAN_MOTION    = 14.39669507
ECCENTRICITY   = .00078651
INCLINATION    = 98.4681
RA_OF_ASC_NODE = 31.0467
ARG_OF_PERICENTER = 111.1009
MEAN_ANOMALY   = 310.6630

EPHEMERIS_TYPE = 0
CLASSIFICATION_TYPE = U
NORAD_CAT_ID   = 23561
ELEMENT_SET_NO = 999
REV_AT_EPOCH   = 60334
BSTAR          = .13891353E-3
MEAN_MOTION_DOT = .391E-5
MEAN_MOTION_DDOT = 0

CCSDS_OMM_VERS = 2.0
CREATION_DATE  = 
ORIGINATOR     = 

OBJECT_NAME    = SL-16 R/B
OBJECT_ID      = 1995-058B
CENTER_NAME    = EARTH
REF_FRAME      = TEME
TIME_SYSTEM    = UTC
MEAN_ELEMENT_THEORY = SGP/SGP4

EPOCH          = 2025-11-19T05:58:37.466400
MEAN_MOTION    = 14.15475766
ECCENTRICITY   = .00149822
INCLINATION    = 71.0227
RA_OF_ASC_NODE = 52.1215
ARG_OF_PERICENTER = 285.3029
MEAN_ANOMALY   = 74.6438

EPHEMERIS_TYPE = 0
CLASSIFICATION_TYPE = U
NORAD_CAT_ID   = 23705
ELEMENT_SET_NO = 999
REV_AT_EPOCH   = 55222
BSTAR          = -.87602252E-4
MEAN_MOTION_DOT = -.219E-5
MEAN_MOTION_DDOT = 0

